{
  "type": "FeatureCollection",
  "features": [
    {
      "type": "Feature",
      "properties": {
        "norad_id": 67032,
        "name": "STARLINK-36131",
        "group": "last-30-days",
        "lat": -41.454586087363715,
        "lon": 27.3714523311075,
        "alt_km": 371.8415112114026,
        "timestamp": "2025-12-26T09:30:52.344666+00:00",
        "meta_object_name": "STARLINK-36131",
        "meta_object_id": "2025-294C",
        "meta_epoch": "2025-12-26T04:00:01.998720",
        "meta_mean_motion": 15.6723537,
        "meta_eccentricity": 0.0001567,
        "meta_inclination": 42.9997,
        "meta_ra_of_asc_node": 100.1784,
        "meta_arg_of_pericenter": 278.2544,
        "meta_mean_anomaly": 148.1515,
        "meta_ephemeris_type": 0,
        "meta_classification_type": "U",
        "meta_norad_cat_id": 67032,
        "meta_element_set_no": 999,
        "meta_rev_at_epoch": 226,
        "meta_bstar": -0.019863,
        "meta_mean_motion_dot": -0.0194125,
        "meta_mean_motion_ddot": 0,
        "tle_line1": "1 67032U 25294C   25360.16668980 -.01941250  00000+0 -19863-1 0  9991",
        "tle_line2": "2 67032  42.9997 100.1784 0001567 278.2544 148.1515 15.67235370  2266"
      },
      "geometry": {
        "type": "Point",
        "coordinates": [
          27.3714523311075,
          -41.454586087363715
        ]
      }
    },
    {
      "type": "Feature",
      "properties": {
        "norad_id": 67033,
        "name": "STARLINK-36137",
        "group": "last-30-days",
        "lat": -41.86317337731358,
        "lon": 24.726203905815407,
        "alt_km": 371.8158879631337,
        "timestamp": "2025-12-26T09:30:52.344676+00:00",
        "meta_object_name": "STARLINK-36137",
        "meta_object_id": "2025-294D",
        "meta_epoch": "2025-12-26T04:00:01.998720",
        "meta_mean_motion": 15.67239612,
        "meta_eccentricity": 0.0001598,
        "meta_inclination": 42.9996,
        "meta_ra_of_asc_node": 100.1839,
        "meta_arg_of_pericenter": 281.312,
        "meta_mean_anomaly": 143.0663,
        "meta_ephemeris_type": 0,
        "meta_classification_type": "U",
        "meta_norad_cat_id": 67033,
        "meta_element_set_no": 999,
        "meta_rev_at_epoch": 226,
        "meta_bstar": -0.019819,
        "meta_mean_motion_dot": -0.01937749,
        "meta_mean_motion_ddot": 0,
        "tle_line1": "1 67033U 25294D   25360.16668980 -.01937749  00000+0 -19819-1 0  9991",
        "tle_line2": "2 67033  42.9996 100.1839 0001598 281.3120 143.0663 15.67239612  2267"
      },
      "geometry": {
        "type": "Point",
        "coordinates": [
          24.726203905815407,
          -41.86317337731358
        ]
      }
    },
    {
      "type": "Feature",
      "properties": {
        "norad_id": 67034,
        "name": "STARLINK-36140",
        "group": "last-30-days",
        "lat": -40.96865281489671,
        "lon": 30.068686939521644,
        "alt_km": 371.769944983801,
        "timestamp": "2025-12-26T09:30:52.344686+00:00",
        "meta_object_name": "STARLINK-36140",
        "meta_object_id": "2025-294E",
        "meta_epoch": "2025-12-25T22:00:01.999584",
        "meta_mean_motion": 15.68303576,
        "meta_eccentricity": 0.00013615,
        "meta_inclination": 42.9992,
        "meta_ra_of_asc_node": 101.6743,
        "meta_arg_of_pericenter": 287.6779,
        "meta_mean_anomaly": 168.1413,
        "meta_ephemeris_type": 0,
        "meta_classification_type": "U",
        "meta_norad_cat_id": 67034,
        "meta_element_set_no": 999,
        "meta_rev_at_epoch": 222,
        "meta_bstar": -0.019376918,
        "meta_mean_motion_dot": -0.01974584,
        "meta_mean_motion_ddot": 0,
        "tle_line1": "1 67034U 25294E   25359.91668981 -.01974584  00000+0 -19377-1 0  9991",
        "tle_line2": "2 67034  42.9992 101.6743 0001361 287.6779 168.1413 15.68303576  2220"
      },
      "geometry": {
        "type": "Point",
        "coordinates": [
          30.068686939521644,
          -40.96865281489671
        ]
      }
    },
    {
      "type": "Feature",
      "properties": {
        "norad_id": 67035,
        "name": "STARLINK-36085",
        "group": "last-30-days",
        "lat": -39.80316984574658,
        "lon": 35.376929663214085,
        "alt_km": 372.06713639894406,
        "timestamp": "2025-12-26T09:30:52.344695+00:00",
        "meta_object_name": "STARLINK-36085",
        "meta_object_id": "2025-294F",
        "meta_epoch": "2025-12-26T04:00:01.998720",
        "meta_mean_motion": 15.67186342,
        "meta_eccentricity": 0.0001336,
        "meta_inclination": 42.9996,
        "meta_ra_of_asc_node": 100.163,
        "meta_arg_of_pericenter": 278.85,
        "meta_mean_anomaly": 153.9067,
        "meta_ephemeris_type": 0,
        "meta_classification_type": "U",
        "meta_norad_cat_id": 67035,
        "meta_element_set_no": 999,
        "meta_rev_at_epoch": 226,
        "meta_bstar": -0.019777,
        "meta_mean_motion_dot": -0.01930265,
        "meta_mean_motion_ddot": 0,
        "tle_line1": "1 67035U 25294F   25360.16668980 -.01930265  00000+0 -19777-1 0  9992",
        "tle_line2": "2 67035  42.9996 100.1630 0001336 278.8500 153.9067 15.67186342  2260"
      },
      "geometry": {
        "type": "Point",
        "coordinates": [
          35.376929663214085,
          -39.80316984574658
        ]
      }
    },
    {
      "type": "Feature",
      "properties": {
        "norad_id": 67036,
        "name": "STARLINK-36125",
        "group": "last-30-days",
        "lat": -40.41597951985344,
        "lon": 32.74736273057803,
        "alt_km": 371.8787545704017,
        "timestamp": "2025-12-26T09:30:52.344705+00:00",
        "meta_object_name": "STARLINK-36125",
        "meta_object_id": "2025-294G",
        "meta_epoch": "2025-12-26T04:00:01.998720",
        "meta_mean_motion": 15.67205515,
        "meta_eccentricity": 0.0001578,
        "meta_inclination": 42.9994,
        "meta_ra_of_asc_node": 100.168,
        "meta_arg_of_pericenter": 279.4366,
        "meta_mean_anomaly": 151.1977,
        "meta_ephemeris_type": 0,
        "meta_classification_type": "U",
        "meta_norad_cat_id": 67036,
        "meta_element_set_no": 999,
        "meta_rev_at_epoch": 246,
        "meta_bstar": -0.019864,
        "meta_mean_motion_dot": -0.01939217,
        "meta_mean_motion_ddot": 0,
        "tle_line1": "1 67036U 25294G   25360.16668980 -.01939217  00000+0 -19864-1 0  9996",
        "tle_line2": "2 67036  42.9994 100.1680 0001578 279.4366 151.1977 15.67205515  2465"
      },
      "geometry": {
        "type": "Point",
        "coordinates": [
          32.74736273057803,
          -40.41597951985344
        ]
      }
    },
    {
      "type": "Feature",
      "properties": {
        "norad_id": 67037,
        "name": "STARLINK-35732",
        "group": "last-30-days",
        "lat": -39.108468184873345,
        "lon": 38.041907402837225,
        "alt_km": 372.036802014517,
        "timestamp": "2025-12-26T09:30:52.344715+00:00",
        "meta_object_name": "STARLINK-35732",
        "meta_object_id": "2025-294H",
        "meta_epoch": "2025-12-26T04:00:01.998720",
        "meta_mean_motion": 15.67170937,
        "meta_eccentricity": 0.000142,
        "meta_inclination": 42.9996,
        "meta_ra_of_asc_node": 100.1574,
        "meta_arg_of_pericenter": 279.7072,
        "meta_mean_anomaly": 155.2421,
        "meta_ephemeris_type": 0,
        "meta_classification_type": "U",
        "meta_norad_cat_id": 67037,
        "meta_element_set_no": 999,
        "meta_rev_at_epoch": 237,
        "meta_bstar": -0.019858,
        "meta_mean_motion_dot": -0.01936182,
        "meta_mean_motion_ddot": 0,
        "tle_line1": "1 67037U 25294H   25360.16668980 -.01936182  00000+0 -19858-1 0  9998",
        "tle_line2": "2 67037  42.9996 100.1574 0001420 279.7072 155.2421 15.67170937  2371"
      },
      "geometry": {
        "type": "Point",
        "coordinates": [
          38.041907402837225,
          -39.108468184873345
        ]
      }
    },
    {
      "type": "Feature",
      "properties": {
        "norad_id": 67038,
        "name": "STARLINK-35775",
        "group": "last-30-days",
        "lat": -38.40694291015966,
        "lon": 40.47712658750186,
        "alt_km": 371.9719682506211,
        "timestamp": "2025-12-26T09:30:52.344727+00:00",
        "meta_object_name": "STARLINK-35775",
        "meta_object_id": "2025-294J",
        "meta_epoch": "2025-12-26T04:00:01.998720",
        "meta_mean_motion": 15.67160053,
        "meta_eccentricity": 0.0001541,
        "meta_inclination": 42.9995,
        "meta_ra_of_asc_node": 100.152,
        "meta_arg_of_pericenter": 278.5986,
        "meta_mean_anomaly": 158.39,
        "meta_ephemeris_type": 0,
        "meta_classification_type": "U",
        "meta_norad_cat_id": 67038,
        "meta_element_set_no": 999,
        "meta_rev_at_epoch": 237,
        "meta_bstar": -0.019887,
        "meta_mean_motion_dot": -0.01937985,
        "meta_mean_motion_ddot": 0,
        "tle_line1": "1 67038U 25294J   25360.16668980 -.01937985  00000+0 -19887-1 0  9993",
        "tle_line2": "2 67038  42.9995 100.1520 0001541 278.5986 158.3900 15.67160053  2371"
      },
      "geometry": {
        "type": "Point",
        "coordinates": [
          40.47712658750186,
          -38.40694291015966
        ]
      }
    }
  ]
}